LEMUR-2-PETERG          
1 42841U 17042S   26068.48235713  .00023240  00000+0  81076-3 0  9993
2 42841  97.3980 253.6596 0003700 341.6938  18.4169 15.29611459473171
STARLINK-35380          
1 65905U 25224Z   26068.16643720  .00007298  00000+0  25832-3 0  9999
2 65905  53.1623  13.8081 0001170  92.0009 268.1126 15.30197967 24748
